*******************************************************************************
 Revised: April 12, 2021                Venus                           299 / 2
 
 PHYSICAL DATA (updated 2020-Oct-19):
  Vol. Mean Radius (km) =  6051.84+-0.01 Density (g/cm^3)      =  5.204
  Mass x10^23 (kg)      =    48.685      Volume (x10^10 km^3)  = 92.843
  Sidereal rot. period  =   243.018484 d Sid. Rot. Rate (rad/s)= -0.00000029924
  Mean solar day        =   116.7490 d   Equ. gravity  m/s^2   =  8.870
  Mom. of Inertia       =     0.33       Core radius (km)      = ~3200
  Geometric Albedo      =     0.65       Potential Love # k2   = ~0.25
  GM (km^3/s^2)         = 324858.592     Equatorial Radius, Re = 6051.893 km
  GM 1-sigma (km^3/s^2) =    +-0.006     Mass ratio (Sun/Venus)= 408523.72
  Atmos. pressure (bar) =  90            Max. angular diam.    =   60.2"
  Mean Temperature (K)  = 735            Visual mag. V(1,0)    =   -4.40
  Obliquity to orbit    = 177.3 deg      Hill's sphere rad.,Rp =  167.1
  Sidereal orb. per., y =   0.61519726   Orbit speed, km/s     =   35.021
  Sidereal orb. per., d = 224.70079922   Escape speed, km/s    =   10.361
                                 Perihelion  Aphelion    Mean
  Solar Constant (W/m^2)         2759         2614       2650
  Maximum Planetary IR (W/m^2)    153         153         153
  Minimum Planetary IR (W/m^2)    153         153         153
*******************************************************************************


*******************************************************************************
Ephemeris / WWW_USER Wed Nov 20 13:51:12 2024 Pasadena, USA      / Horizons
*******************************************************************************
Target body name: Venus (299)                     {source: DE441}
Center body name: Sun (10)                        {source: DE441}
Center-site name: (user defined site below)
*******************************************************************************
Start time      : A.D. 1992-Sep-30 00:00:00.0000 TDB
Stop  time      : A.D. 2022-Sep-30 00:00:00.0000 TDB
Step-size       : 1440 minutes
*******************************************************************************
Center geodetic : 0.0, 0.0, 0.0                   {E-lon(deg),Lat(deg),Alt(km)}
Center cylindric: 0.0, 695700.0, 0.0              {E-lon(deg),Dxy(km),Dz(km)}
Center pole/equ : IAU_SUN                         {East-longitude positive}
Center radii    : 695700.0, 695700.0, 695700.0 km {Equator_a, b, pole_c}
Output units    : KM-S
Calendar mode   : Mixed Julian/Gregorian
Output type     : GEOMETRIC cartesian states
Output format   : 3 (position, velocity, LT, range, range-rate)
Reference frame : Ecliptic of J2000.0
*******************************************************************************
JDTDB
   X     Y     Z
   VX    VY    VZ
   LT    RG    RR
*******************************************************************************
$$SOE
2456047.500000000 = A.D. 2012-Apr-30 00:00:00.0000 TDB 
 X =-1.031078390645101E+08 Y =-2.964276459297990E+07 Z = 5.535699058828032E+06
 VX= 7.828972364164662E+00 VY=-3.290171471222291E+01 VZ=-7.707001646716485E-01
 LT= 3.583379565064033E+02 RG= 1.074270167757517E+08 RR= 1.524784007739310E+00
2456048.500000000 = A.D. 2012-May-01 00:00:00.0000 TDB 
 X =-1.023984159748416E+08 Y =-3.249300601133373E+07 Z = 5.467256780349794E+06
 VX= 8.610541498499558E+00 VY=-3.307821518726448E+01 VZ=-8.160286993261590E-01
 LT= 3.588120603406040E+02 RG= 1.075691495295540E+08 RR= 1.753694225320634E+00
2456049.500000000 = A.D. 2012-May-02 00:00:00.0000 TDB 
 X =-1.016167833656993E+08 Y =-3.535862982231709E+07 Z = 5.394271922416810E+06
 VX= 9.501387496188430E+00 VY=-3.325291787870498E+01 VZ=-8.758181394508764E-01
 LT= 3.593416118738393E+02 RG= 1.077279050853403E+08 RR= 1.908073656028836E+00
2456050.500000000 = A.D. 2012-May-03 00:00:00.0000 TDB 
 X =-1.007533722116725E+08 Y =-3.823820478634480E+07 Z = 5.315517391454738E+06
 VX= 1.050323714984746E+01 VY=-3.339619375136078E+01 VZ=-9.493974629879069E-01
 LT= 3.599040199946864E+02 RG= 1.078965107982882E+08 RR= 1.980855483237836E+00
2456051.500000000 = A.D. 2012-May-04 00:00:00.0000 TDB 
 X =-9.979878194486038E+07 Y =-4.112774179940634E+07 Z = 5.229863225590572E+06
 VX= 1.161047679811638E+01 VY=-3.347876762455600E+01 VZ=-1.035200385045298E+00
 LT= 3.604752264167554E+02 RG= 1.080677541755857E+08 RR= 1.968956545570479E+00
2456052.500000000 = A.D. 2012-May-05 00:00:00.0000 TDB 
 X =-9.874440495484374E+07 Y =-4.402080290186948E+07 Z = 5.136350294321088E+06
 VX= 1.281045121802380E+01 VY=-3.347352111804418E+01 VZ=-1.130858603089894E+00
 LT= 3.610308712908237E+02 RG= 1.082343323181576E+08 RR= 1.873364971914214E+00
2456053.500000000 = A.D. 2012-May-06 00:00:00.0000 TDB 
 X =-9.758300646272439E+07 Y =-4.690876120425715E+07 Z = 5.034253774737081E+06
 VX= 1.408419246463975E+01 VY=-3.335716529060960E+01 VZ=-1.233343995927140E+00
 LT= 3.615474552334633E+02 RG= 1.083892002880849E+08 RR= 1.699029881320607E+00
2456054.500000000 = A.D. 2012-May-07 00:00:00.0000 TDB 
 X =-9.630922435918960E+07 Y =-4.978119598406471E+07 Z = 4.923132529388538E+06
 VX= 1.540753424949588E+01 VY=-3.311168096019508E+01 VZ=-1.339151107396894E+00
 LT= 3.620034430505747E+02 RG= 1.085259019965948E+08 RR= 1.454570614958444E+00
2456055.500000000 = A.D. 2012-May-08 00:00:00.0000 TDB 
 X =-9.491995847399823E+07 Y =-5.262639896370681E+07 Z = 4.802861370397208E+06
 VX= 1.675254393995489E+01 VY=-3.272543885941538E+01 VZ=-1.444508789266312E+00
 LT= 3.623802604799354E+02 RG= 1.086388690199601E+08 RR= 1.151829471618316E+00
2456056.500000000 = A.D. 2012-May-09 00:00:00.0000 TDB 
 X =-9.341462548353353E+07 Y =-5.543196099842627E+07 Z = 4.673644237813998E+06
 VX= 1.808918489368680E+01 VY=-3.219393130173596E+01 VZ=-1.545608099734787E+00
 LT= 3.626631427694356E+02 RG= 1.087236749968540E+08 RR= 8.052955326518074E-01
2456057.500000000 = A.D. 2012-May-10 00:00:00.0000 TDB 
 X =-9.179526385321426E+07 Y =-5.818540349797673E+07 Z = 4.536007483860582E+06
 VX= 1.938710779671721E+01 VY=-3.152007072123172E+01 VZ=-1.638832562709354E+00
 LT= 3.628418020973759E+02 RG= 1.087772357159219E+08 RR= 4.314285114082245E-01
2456058.500000000 = A.D. 2012-May-11 00:00:00.0000 TDB 
 X =-9.006648235318959E+07 Y =-6.087481617616989E+07 Z = 4.390773667630944E+06
 VX= 2.061746180653919E+01 VY=-3.071403685827891E+01 VZ=-1.720976748996273E+00
 LT= 3.629108891901260E+02 RG= 1.087979475052735E+08 RR= 4.791145915011075E-02
2456059.500000000 = A.D. 2012-May-12 00:00:00.0000 TDB 
 X =-8.823525522145142E+07 Y =-6.348946233444051E+07 Z = 4.239017453101534E+06
 VX= 2.175461509329989E+01 VY=-2.979268188445520E+01 VZ=-1.789439852577253E+00
 LT= 3.628702327016408E+02 RG= 1.087857589966569E+08 RR=-3.271395792174646E-01
2456060.500000000 = A.D. 2012-May-13 00:00:00.0000 TDB 
 X =-8.631057639683844E+07 Y =-6.602031486304489E+07 Z = 4.082006294451661E+06
 VX= 2.277767989567571E+01 VY=-2.877852971422502E+01 VZ=-1.842382459768450E+00
 LT= 3.627248479079107E+02 RG= 1.087421737319887E+08 RR=-6.759815628530043E-01
2456061.500000000 = A.D. 2012-May-14 00:00:00.0000 TDB 
 X =-8.430299383534965E+07 Y =-6.846049036584035E+07 Z = 3.921129520194631E+06
 VX= 2.367174912704021E+01 VY=-2.769843049509049E+01 VZ=-1.878836953344665E+00
 LT= 3.624847141197876E+02 RG= 1.086701834333984E+08 RR=-9.820389212609631E-01
2456062.500000000 = A.D. 2012-May-15 00:00:00.0000 TDB 
 X =-8.222405223290107E+07 Y =-7.080555502430288E+07 Z = 3.757820134910394E+06
 VX= 2.442876915504988E+01 VY=-2.658195229301861E+01 VZ=-1.898764820793085E+00
 LT= 3.621643280990181E+02 RG= 1.085741341207231E+08 RR=-1.230658876634901E+00
2456063.500000000 = A.D. 2012-May-16 00:00:00.0000 TDB 
 X =-8.008567806042711E+07 Y =-7.305368363490829E+07 Z = 3.593474101324435E+06
 VX= 2.504799556146353E+01 VY=-2.545960801408023E+01 VZ=-1.903057373361756E+00
 LT= 3.617820488446075E+02 RG= 1.084595296834010E+08 RR=-1.409799093688067E+00
2456064.500000000 = A.D. 2012-May-17 00:00:00.0000 TDB 
 X =-7.789954433263898E+07 Y =-7.520566220448722E+07 Z = 3.429372019024793E+06
 VX= 2.553600411618583E+01 VY=-2.436102564927328E+01 VZ=-1.893479833078123E+00
 LT= 3.613592574833587E+02 RG= 1.083327800219910E+08 RR=-1.510618166709099E+00
2456065.500000000 = A.D. 2012-May-18 00:00:00.0000 TDB 
 X =-7.567645376544896E+07 Y =-7.726473402490674E+07 Z = 3.266607969886549E+06
 VX= 2.590625631971232E+01 VY=-2.331317338480988E+01 VZ=-1.872562198031773E+00
 LT= 3.609193645689709E+02 RG= 1.082009034439299E+08 RR=-1.527939130809378E+00
2456066.500000000 = A.D. 2012-May-19 00:00:00.0000 TDB 
 X =-7.342577785383241E+07 Y =-7.923629868992084E+07 Z = 3.106029863197915E+06
 VX= 2.617824602780343E+01 VY=-2.233874777434976E+01 VZ=-1.843443541394010E+00
 LT= 3.604867055664199E+02 RG= 1.080711955380793E+08 RR=-1.460557332951456E+00
2456067.500000000 = A.D. 2012-May-20 00:00:00.0000 TDB 
 X =-7.115498599020711E+07 Y =-8.112748248149598E+07 Z = 2.948194912203230E+06
 VX= 2.637627921506364E+01 VY=-2.145482322622327E+01 VZ=-1.809679239002437E+00
 LT= 3.600853731257323E+02 RG= 1.079508790992104E+08 RR=-1.311367456189666E+00
2456068.500000000 = A.D. 2012-May-21 00:00:00.0000 TDB 
 X =-6.886929325131062E+07 Y =-8.294660639368604E+07 Z = 2.793342951059155E+06
 VX= 2.652796130275037E+01 VY=-2.067184512434706E+01 VZ=-1.775022880724605E+00
 LT= 3.597380411648425E+02 RG= 1.078467515969133E+08 RR=-1.087290913018830E+00
2456069.500000000 = A.D. 2012-May-22 00:00:00.0000 TDB 
 X =-6.657144824392342E+07 Y =-8.470258430118765E+07 Z = 2.641389213302888E+06
 VX= 2.666248430673861E+01 VY=-1.999302794802164E+01 VZ=-1.743196164450843E+00
 LT= 3.594648398804547E+02 RG= 1.077648479123380E+08 RR=-7.989944781684186E-01
2456070.500000000 = A.D. 2012-May-23 00:00:00.0000 TDB 
 X =-6.426167385793977E+07 Y =-8.640428803655940E+07 Z = 2.491937006190635E+06
 VX= 2.680881826671325E+01 VY=-1.941419506008239E+01 VZ=-1.717660804260689E+00
 LT= 3.592823416850025E+02 RG= 1.077101363297427E+08 RR=-4.604036185916920E-01
